{"type": "FeatureCollection", "features": [{"type": "Feature", "properties": {"norad_id": 28054, "name": "DMSP 5D-3 F16 (USA 172)", "group": "weather", "lat": 30.053141823943907, "lon": -2.610598660613601, "alt_km": 840.6430541725513, "timestamp": "2025-12-11T05:00:25.954362+00:00", "meta": {"OBJECT_NAME": "DMSP 5D-3 F16 (USA 172)", "OBJECT_ID": "2003-048A", "EPOCH": "2025-12-10T23:54:55.067616", "MEAN_MOTION": 14.14423232, "ECCENTRICITY": 0.00065622, "INCLINATION": 99.0048, "RA_OF_ASC_NODE": 2.4397, "ARG_OF_PERICENTER": 326.3382, "MEAN_ANOMALY": 64.44, "EPHEMERIS_TYPE": 0, "CLASSIFICATION_TYPE": "U", "NORAD_CAT_ID": 28054, "ELEMENT_SET_NO": 999, "REV_AT_EPOCH": 14288, "BSTAR": 0.0001278796, "MEAN_MOTION_DOT": 1.99e-06, "MEAN_MOTION_DDOT": 0}, "tle": {"line1": "1 28054U 03048A   25344.99647069  .00000199  00000+0  12788-3 0  9999", "line2": "2 28054  99.0048   2.4397 0006562 326.3382  64.4400 14.14423232142889"}}, "geometry": {"type": "Point", "coordinates": [-2.610598660613601, 30.053141823943907]}}, {"type": "Feature", "properties": {"norad_id": 28912, "name": "METEOSAT-9 (MSG-2)", "group": "weather", "lat": 5.116492958808206, "lon": -158.76081788580018, "alt_km": 35773.37118839935, "timestamp": "2025-12-11T05:00:25.954411+00:00", "meta": {"OBJECT_NAME": "METEOSAT-9 (MSG-2)", "OBJECT_ID": "2005-049B", "EPOCH": "2025-12-10T20:37:31.694304", "MEAN_MOTION": 1.00275463, "ECCENTRICITY": 0.0003704, "INCLINATION": 8.9357, "RA_OF_ASC_NODE": 55.9949, "ARG_OF_PERICENTER": 190.2808, "MEAN_ANOMALY": 188.5842, "EPHEMERIS_TYPE": 0, "CLASSIFICATION_TYPE": "U", "NORAD_CAT_ID": 28912, "ELEMENT_SET_NO": 999, "REV_AT_EPOCH": 511, "BSTAR": 0, "MEAN_MOTION_DOT": 1.27e-06, "MEAN_MOTION_DDOT": 0}, "tle": {"line1": "1 28912U 05049B   25344.85939461  .00000127  00000+0  00000+0 0  9991", "line2": "2 28912   8.9357  55.9949 0003704 190.2808 188.5842  1.00275463  5110"}}, "geometry": {"type": "Point", "coordinates": [-158.76081788580018, 5.116492958808206]}}, {"type": "Feature", "properties": {"norad_id": 29522, "name": "DMSP 5D-3 F17 (USA 191)", "group": "weather", "lat": -31.404627860881334, "lon": -3.981727017630622, "alt_km": 849.5661367206931, "timestamp": "2025-12-11T05:00:25.954429+00:00", "meta": {"OBJECT_NAME": "DMSP 5D-3 F17 (USA 191)", "OBJECT_ID": "2006-050A", "EPOCH": "2025-12-10T22:22:07.412736", "MEAN_MOTION": 14.14918237, "ECCENTRICITY": 0.00093322, "INCLINATION": 98.7394, "RA_OF_ASC_NODE": 350.3588, "ARG_OF_PERICENTER": 230.5154, "MEAN_ANOMALY": 129.5195, "EPHEMERIS_TYPE": 0, "CLASSIFICATION_TYPE": "U", "NORAD_CAT_ID": 29522, "ELEMENT_SET_NO": 999, "REV_AT_EPOCH": 98579, "BSTAR": 0.00015763063, "MEAN_MOTION_DOT": 2.61e-06, "MEAN_MOTION_DDOT": 0}, "tle": {"line1": "1 29522U 06050A   25344.93203024  .00000261  00000+0  15763-3 0  9995", "line2": "2 29522  98.7394 350.3588 0009332 230.5154 129.5195 14.14918237985791"}}, "geometry": {"type": "Point", "coordinates": [-3.981727017630622, -31.404627860881334]}}, {"type": "Feature", "properties": {"norad_id": 32958, "name": "FENGYUN 3A", "group": "weather", "lat": 16.683577378710314, "lon": -77.85323580945011, "alt_km": 824.7659232639162, "timestamp": "2025-12-11T05:00:25.954443+00:00", "meta": {"OBJECT_NAME": "FENGYUN 3A", "OBJECT_ID": "2008-026A", "EPOCH": "2025-12-10T13:42:10.579392", "MEAN_MOTION": 14.19513473, "ECCENTRICITY": 0.0007991, "INCLINATION": 98.6695, "RA_OF_ASC_NODE": 284.1435, "ARG_OF_PERICENTER": 317.2846, "MEAN_ANOMALY": 42.7709, "EPHEMERIS_TYPE": 0, "CLASSIFICATION_TYPE": "U", "NORAD_CAT_ID": 32958, "ELEMENT_SET_NO": 999, "REV_AT_EPOCH": 90864, "BSTAR": 0.00012071, "MEAN_MOTION_DOT": 2.11e-06, "MEAN_MOTION_DDOT": 0}, "tle": {"line1": "1 32958U 08026A   25344.57095578  .00000211  00000+0  12071-3 0  9994", "line2": "2 32958  98.6695 284.1435 0007991 317.2846  42.7709 14.19513473908640"}}, "geometry": {"type": "Point", "coordinates": [-77.85323580945011, 16.683577378710314]}}, {"type": "Feature", "properties": {"norad_id": 35491, "name": "GOES 14", "group": "weather", "lat": -0.7343314033778983, "lon": 46.60246211477576, "alt_km": 35802.61737945944, "timestamp": "2025-12-11T05:00:25.954457+00:00", "meta": {"OBJECT_NAME": "GOES 14", "OBJECT_ID": "2009-033A", "EPOCH": "2025-12-10T16:27:03.557376", "MEAN_MOTION": 1.00162418, "ECCENTRICITY": 0.0003441, "INCLINATION": 1.1989, "RA_OF_ASC_NODE": 85.3725, "ARG_OF_PERICENTER": 333.0778, "MEAN_ANOMALY": 159.5039, "EPHEMERIS_TYPE": 0, "CLASSIFICATION_TYPE": "U", "NORAD_CAT_ID": 35491, "ELEMENT_SET_NO": 999, "REV_AT_EPOCH": 470, "BSTAR": 0, "MEAN_MOTION_DOT": -4.6e-07, "MEAN_MOTION_DDOT": 0}, "tle": {"line1": "1 35491U 09033A   25344.68545784 -.00000046  00000+0  00000+0 0  9991", "line2": "2 35491   1.1989  85.3725 0003441 333.0778 159.5039  1.00162418  4701"}}, "geometry": {"type": "Point", "coordinates": [46.60246211477576, -0.7343314033778983]}}, {"type": "Feature", "properties": {"norad_id": 35951, "name": "DMSP 5D-3 F18 (USA 210)", "group": "weather", "lat": -16.40724877686978, "lon": 138.97759720515555, "alt_km": 853.4542073445582, "timestamp": "2025-12-11T05:00:25.954470+00:00", "meta": {"OBJECT_NAME": "DMSP 5D-3 F18 (USA 210)", "OBJECT_ID": "2009-057A", "EPOCH": "2025-12-10T21:17:35.031264", "MEAN_MOTION": 14.14767473, "ECCENTRICITY": 0.00120763, "INCLINATION": 98.8833, "RA_OF_ASC_NODE": 321.2973, "ARG_OF_PERICENTER": 67.5863, "MEAN_ANOMALY": 292.6589, "EPHEMERIS_TYPE": 0, "CLASSIFICATION_TYPE": "U", "NORAD_CAT_ID": 35951, "ELEMENT_SET_NO": 999, "REV_AT_EPOCH": 83296, "BSTAR": 0.0002341826, "MEAN_MOTION_DOT": 4.07e-06, "MEAN_MOTION_DDOT": 0}, "tle": {"line1": "1 35951U 09057A   25344.88721101  .00000407  00000+0  23418-3 0  9991", "line2": "2 35951  98.8833 321.2973 0012076  67.5863 292.6589 14.14767473832965"}}, "geometry": {"type": "Point", "coordinates": [138.97759720515555, -16.40724877686978]}}, {"type": "Feature", "properties": {"norad_id": 36411, "name": "EWS-G2 (GOES 15)", "group": "weather", "lat": 0.5996063672104365, "lon": -143.34583865233373, "alt_km": 35768.75267531996, "timestamp": "2025-12-11T05:00:25.954483+00:00", "meta": {"OBJECT_NAME": "EWS-G2 (GOES 15)", "OBJECT_ID": "2010-008A", "EPOCH": "2025-12-10T20:58:01.180128", "MEAN_MOTION": 1.00269266, "ECCENTRICITY": 0.00058391, "INCLINATION": 0.8096, "RA_OF_ASC_NODE": 86.063, "ARG_OF_PERICENTER": 174.0938, "MEAN_ANOMALY": 195.6129, "EPHEMERIS_TYPE": 0, "CLASSIFICATION_TYPE": "U", "NORAD_CAT_ID": 36411, "ELEMENT_SET_NO": 999, "REV_AT_EPOCH": 5775, "BSTAR": 0, "MEAN_MOTION_DOT": 4.3e-07, "MEAN_MOTION_DDOT": 0}, "tle": {"line1": "1 36411U 10008A   25344.87362477  .00000043  00000+0  00000+0 0  9991", "line2": "2 36411   0.8096  86.0630 0005839 174.0938 195.6129  1.00269266 57759"}}, "geometry": {"type": "Point", "coordinates": [-143.34583865233373, 0.5996063672104365]}}, {"type": "Feature", "properties": {"norad_id": 36744, "name": "COMS 1", "group": "weather", "lat": -1.8789464976461718, "lon": -76.61109991806846, "alt_km": 35781.95519427366, "timestamp": "2025-12-11T05:00:25.954497+00:00", "meta": {"OBJECT_NAME": "COMS 1", "OBJECT_ID": "2010-032A", "EPOCH": "2025-12-10T15:51:52.946208", "MEAN_MOTION": 1.0027063, "ECCENTRICITY": 0.00011371, "INCLINATION": 4.3367, "RA_OF_ASC_NODE": 78.0199, "ARG_OF_PERICENTER": 211.0495, "MEAN_ANOMALY": 156.7077, "EPHEMERIS_TYPE": 0, "CLASSIFICATION_TYPE": "U", "NORAD_CAT_ID": 36744, "ELEMENT_SET_NO": 999, "REV_AT_EPOCH": 4920, "BSTAR": 0, "MEAN_MOTION_DOT": -3.4e-06, "MEAN_MOTION_DDOT": 0}, "tle": {"line1": "1 36744U 10032A   25344.66102947 -.00000340  00000+0  00000+0 0  9999", "line2": "2 36744   4.3367  78.0199 0001137 211.0495 156.7077  1.00270630 49204"}}, "geometry": {"type": "Point", "coordinates": [-76.61109991806846, -1.8789464976461718]}}, {"type": "Feature", "properties": {"norad_id": 37214, "name": "FENGYUN 3B", "group": "weather", "lat": 18.743943876314145, "lon": -151.74585859999362, "alt_km": 858.110128062086, "timestamp": "2025-12-11T05:00:25.954509+00:00", "meta": {"OBJECT_NAME": "FENGYUN 3B", "OBJECT_ID": "2010-059A", "EPOCH": "2025-12-10T23:22:44.192640", "MEAN_MOTION": 14.14788385, "ECCENTRICITY": 0.00221268, "INCLINATION": 98.9905, "RA_OF_ASC_NODE": 24.9385, "ARG_OF_PERICENTER": 2.7337, "MEAN_ANOMALY": 44.3243, "EPHEMERIS_TYPE": 0, "CLASSIFICATION_TYPE": "U", "NORAD_CAT_ID": 37214, "ELEMENT_SET_NO": 999, "REV_AT_EPOCH": 78081, "BSTAR": 8.0619265e-05, "MEAN_MOTION_DOT": 1.1e-06, "MEAN_MOTION_DDOT": 0}, "tle": {"line1": "1 37214U 10059A   25344.97412260  .00000110  00000+0  80619-4 0  9990", "line2": "2 37214  98.9905  24.9385 0022126   2.7337  44.3243 14.14788385780818"}}, "geometry": {"type": "Point", "coordinates": [-151.74585859999362, 18.743943876314145]}}, {"type": "Feature", "properties": {"norad_id": 37849, "name": "SUOMI NPP", "group": "weather", "lat": -24.185630367087548, "lon": -73.45730985280858, "alt_km": 833.7858319777943, "timestamp": "2025-12-11T05:00:25.954521+00:00", "meta": {"OBJECT_NAME": "SUOMI NPP", "OBJECT_ID": "2011-061A", "EPOCH": "2025-12-10T22:21:20.428416", "MEAN_MOTION": 14.19513325, "ECCENTRICITY": 0.00021877, "INCLINATION": 98.7771, "RA_OF_ASC_NODE": 282.2893, "ARG_OF_PERICENTER": 123.4307, "MEAN_ANOMALY": 236.7078, "EPHEMERIS_TYPE": 0, "CLASSIFICATION_TYPE": "U", "NORAD_CAT_ID": 37849, "ELEMENT_SET_NO": 999, "REV_AT_EPOCH": 73173, "BSTAR": 0.00010544745, "MEAN_MOTION_DOT": 1.78e-06, "MEAN_MOTION_DDOT": 0}, "tle": {"line1": "1 37849U 11061A   25344.93148644  .00000178  00000+0  10545-3 0  9990", "line2": "2 37849  98.7771 282.2893 0002187 123.4307 236.7078 14.19513325731732"}}, "geometry": {"type": "Point", "coordinates": [-73.45730985280858, -24.185630367087548]}}]}